[{"OBJECT_NAME":"STARLINK-30152","OBJECT_ID":"2023-079F","EPOCH":"2026-03-09T22:00:01.999584","MEAN_MOTION":15.1944586,"ECCENTRICITY":0.00011484,"INCLINATION":43.0001,"RA_OF_ASC_NODE":105.2934,"ARG_OF_PERICENTER":245.247,"MEAN_ANOMALY":289.956,"EPHEMERIS_TYPE":0,"CLASSIFICATION_TYPE":"U","NORAD_CAT_ID":56828,"ELEMENT_SET_NO":999,"REV_AT_EPOCH":578,"BSTAR":0.053468986,"MEAN_MOTION_DOT":0.01265867,"MEAN_MOTION_DDOT":0},{"OBJECT_NAME":"FLOCK 4BE-23","OBJECT_ID":"2024-149Y","EPOCH":"2026-03-09T17:10:54.131520","MEAN_MOTION":15.34917266,"ECCENTRICITY":0.00023303,"INCLINATION":97.382,"RA_OF_ASC_NODE":150.8326,"ARG_OF_PERICENTER":252.7616,"MEAN_ANOMALY":107.3372,"EPHEMERIS_TYPE":0,"CLASSIFICATION_TYPE":"U","NORAD_CAT_ID":60490,"ELEMENT_SET_NO":999,"REV_AT_EPOCH":8692,"BSTAR":0.00047520751,"MEAN_MOTION_DOT":0.00016029,"MEAN_MOTION_DDOT":0}]
